[{"OBJECT_NAME":"ONEWEB-0516","OBJECT_ID":"2022-138X","EPOCH":"2025-09-27T05:09:00.277920","MEAN_MOTION":13.19724955,"ECCENTRICITY":0.00016874,"INCLINATION":87.9273,"RA_OF_ASC_NODE":357.29,"ARG_OF_PERICENTER":104.4141,"MEAN_ANOMALY":255.7179,"EPHEMERIS_TYPE":0,"CLASSIFICATION_TYPE":"U","NORAD_CAT_ID":54134,"ELEMENT_SET_NO":999,"REV_AT_EPOCH":14214,"BSTAR":0.00025054094,"MEAN_MOTION_DOT":1.13e-6,"MEAN_MOTION_DDOT":0},{"OBJECT_NAME":"ONEWEB-0517","OBJECT_ID":"2022-138Y","EPOCH":"2025-09-27T06:28:36.685920","MEAN_MOTION":13.19726376,"ECCENTRICITY":0.00018014,"INCLINATION":87.9291,"RA_OF_ASC_NODE":357.2458,"ARG_OF_PERICENTER":90.4408,"MEAN_ANOMALY":269.6931,"EPHEMERIS_TYPE":0,"CLASSIFICATION_TYPE":"U","NORAD_CAT_ID":54135,"ELEMENT_SET_NO":999,"REV_AT_EPOCH":14215,"BSTAR":0.00038237497,"MEAN_MOTION_DOT":1.66e-6,"MEAN_MOTION_DDOT":0},{"OBJECT_NAME":"ONEWEB-0518","OBJECT_ID":"2022-138Z","EPOCH":"2025-09-27T05:06:42.808608","MEAN_MOTION":13.19725613,"ECCENTRICITY":0.00016221,"INCLINATION":87.9282,"RA_OF_ASC_NODE":357.2912,"ARG_OF_PERICENTER":101.2477,"MEAN_ANOMALY":258.8838,"EPHEMERIS_TYPE":0,"CLASSIFICATION_TYPE":"U","NORAD_CAT_ID":54136,"ELEMENT_SET_NO":999,"REV_AT_EPOCH":14214,"BSTAR":0.00022639779,"MEAN_MOTION_DOT":1.04e-6,"MEAN_MOTION_DDOT":0},{"OBJECT_NAME":"ONEWEB-0519","OBJECT_ID":"2022-138AA","EPOCH":"2025-09-27T07:32:17.848608","MEAN_MOTION":13.19727312,"ECCENTRICITY":0.00017439,"INCLINATION":87.929,"RA_OF_ASC_NODE":357.2287,"ARG_OF_PERICENTER":91.4621,"MEAN_ANOMALY":268.6712,"EPHEMERIS_TYPE":0,"CLASSIFICATION_TYPE":"U","NORAD_CAT_ID":54137,"ELEMENT_SET_NO":999,"REV_AT_EPOCH":14216,"BSTAR":0.000116125,"MEAN_MOTION_DOT":5.9e-7,"MEAN_MOTION_DDOT":0},{"OBJECT_NAME":"ONEWEB-0520","OBJECT_ID":"2022-138AB","EPOCH":"2025-09-27T06:33:08.624736","MEAN_MOTION":13.19726501,"ECCENTRICITY":0.00014781,"INCLINATION":87.929,"RA_OF_ASC_NODE":357.2405,"ARG_OF_PERICENTER":105.4702,"MEAN_ANOMALY":254.6594,"EPHEMERIS_TYPE":0,"CLASSIFICATION_TYPE":"U","NORAD_CAT_ID":54138,"ELEMENT_SET_NO":999,"REV_AT_EPOCH":14214,"BSTAR":0.0003271738,"MEAN_MOTION_DOT":1.44e-6,"MEAN_MOTION_DDOT":0},{"OBJECT_NAME":"ONEWEB-0521","OBJECT_ID":"2022-138AC","EPOCH":"2025-09-27T05:31:45.052320","MEAN_MOTION":13.19717438,"ECCENTRICITY":0.00018575,"INCLINATION":87.929,"RA_OF_ASC_NODE":357.2346,"ARG_OF_PERICENTER":93.4334,"MEAN_ANOMALY":266.7011,"EPHEMERIS_TYPE":0,"CLASSIFICATION_TYPE":"U","NORAD_CAT_ID":54139,"ELEMENT_SET_NO":999,"REV_AT_EPOCH":14208,"BSTAR":-0.0025432507,"MEAN_MOTION_DOT":-1.005e-5,"MEAN_MOTION_DDOT":0},{"OBJECT_NAME":"ONEWEB-0522","OBJECT_ID":"2022-138AD","EPOCH":"2025-09-27T06:51:20.413152","MEAN_MOTION":13.1972683,"ECCENTRICITY":0.00017274,"INCLINATION":87.929,"RA_OF_ASC_NODE":357.2248,"ARG_OF_PERICENTER":101.9063,"MEAN_ANOMALY":258.2263,"EPHEMERIS_TYPE":0,"CLASSIFICATION_TYPE":"U","NORAD_CAT_ID":54140,"ELEMENT_SET_NO":999,"REV_AT_EPOCH":14213,"BSTAR":5.3243313e-5,"MEAN_MOTION_DOT":3.4e-7,"MEAN_MOTION_DDOT":0},{"OBJECT_NAME":"ONEWEB-0523","OBJECT_ID":"2022-138AE","EPOCH":"2025-09-27T12:47:49.479648","MEAN_MOTION":13.20773601,"ECCENTRICITY":0.00027185,"INCLINATION":87.9246,"RA_OF_ASC_NODE":326.8173,"ARG_OF_PERICENTER":94.0371,"MEAN_ANOMALY":266.1073,"EPHEMERIS_TYPE":0,"CLASSIFICATION_TYPE":"U","NORAD_CAT_ID":54141,"ELEMENT_SET_NO":999,"REV_AT_EPOCH":14463,"BSTAR":0.00023807452,"MEAN_MOTION_DOT":1.1e-6,"MEAN_MOTION_DDOT":0},{"OBJECT_NAME":"ONEWEB-0524","OBJECT_ID":"2022-138AF","EPOCH":"2025-09-27T14:20:59.659872","MEAN_MOTION":13.20770537,"ECCENTRICITY":0.00025358,"INCLINATION":87.925,"RA_OF_ASC_NODE":326.8051,"ARG_OF_PERICENTER":113.6991,"MEAN_ANOMALY":246.4408,"EPHEMERIS_TYPE":0,"CLASSIFICATION_TYPE":"U","NORAD_CAT_ID":54142,"ELEMENT_SET_NO":999,"REV_AT_EPOCH":14464,"BSTAR":-1.8073729e-5,"MEAN_MOTION_DOT":6.0e-8,"MEAN_MOTION_DDOT":0},{"OBJECT_NAME":"ONEWEB-0525","OBJECT_ID":"2022-138AG","EPOCH":"2025-09-27T07:18:38.331648","MEAN_MOTION":13.19724424,"ECCENTRICITY":0.00014915,"INCLINATION":87.9293,"RA_OF_ASC_NODE":357.243,"ARG_OF_PERICENTER":104.9661,"MEAN_ANOMALY":255.1637,"EPHEMERIS_TYPE":0,"CLASSIFICATION_TYPE":"U","NORAD_CAT_ID":54143,"ELEMENT_SET_NO":999,"REV_AT_EPOCH":14215,"BSTAR":-0.00011651198,"MEAN_MOTION_DOT":-3.4e-7,"MEAN_MOTION_DDOT":0},{"OBJECT_NAME":"ONEWEB-0526","OBJECT_ID":"2022-138AH","EPOCH":"2025-09-27T06:17:13.456320","MEAN_MOTION":13.1972596,"ECCENTRICITY":0.00017369,"INCLINATION":87.9285,"RA_OF_ASC_NODE":357.2379,"ARG_OF_PERICENTER":102.9926,"MEAN_ANOMALY":257.1401,"EPHEMERIS_TYPE":0,"CLASSIFICATION_TYPE":"U","NORAD_CAT_ID":54144,"ELEMENT_SET_NO":999,"REV_AT_EPOCH":14212,"BSTAR":0.00033976338,"MEAN_MOTION_DOT":1.49e-6,"MEAN_MOTION_DDOT":0},{"OBJECT_NAME":"ONEWEB-0529","OBJECT_ID":"2022-138AJ","EPOCH":"2025-09-27T06:21:47.211264","MEAN_MOTION":13.19725751,"ECCENTRICITY":0.00015835,"INCLINATION":87.9276,"RA_OF_ASC_NODE":357.2756,"ARG_OF_PERICENTER":105.1196,"MEAN_ANOMALY":255.0112,"EPHEMERIS_TYPE":0,"CLASSIFICATION_TYPE":"U","NORAD_CAT_ID":54145,"ELEMENT_SET_NO":999,"REV_AT_EPOCH":14214,"BSTAR":0.00037338394,"MEAN_MOTION_DOT":1.62e-6,"MEAN_MOTION_DDOT":0},{"OBJECT_NAME":"ONEWEB-0531","OBJECT_ID":"2022-138AK","EPOCH":"2025-09-27T14:00:31.299840","MEAN_MOTION":13.20775935,"ECCENTRICITY":0.00026883,"INCLINATION":87.9249,"RA_OF_ASC_NODE":326.7991,"ARG_OF_PERICENTER":100.4574,"MEAN_ANOMALY":259.6862,"EPHEMERIS_TYPE":0,"CLASSIFICATION_TYPE":"U","NORAD_CAT_ID":54146,"ELEMENT_SET_NO":999,"REV_AT_EPOCH":14464,"BSTAR":-0.0017915469,"MEAN_MOTION_DOT":-7.15e-6,"MEAN_MOTION_DDOT":0},{"OBJECT_NAME":"ONEWEB-0535","OBJECT_ID":"2022-138AL","EPOCH":"2025-09-27T05:20:21.399360","MEAN_MOTION":13.19726298,"ECCENTRICITY":0.00021601,"INCLINATION":87.929,"RA_OF_ASC_NODE":357.2414,"ARG_OF_PERICENTER":95.8341,"MEAN_ANOMALY":264.3038,"EPHEMERIS_TYPE":0,"CLASSIFICATION_TYPE":"U","NORAD_CAT_ID":54147,"ELEMENT_SET_NO":999,"REV_AT_EPOCH":14215,"BSTAR":0.00011683778,"MEAN_MOTION_DOT":6.0e-7,"MEAN_MOTION_DDOT":0},{"OBJECT_NAME":"ONEWEB-0536","OBJECT_ID":"2022-138AM","EPOCH":"2025-09-27T13:42:21.462336","MEAN_MOTION":13.20772033,"ECCENTRICITY":0.00029082,"INCLINATION":87.9247,"RA_OF_ASC_NODE":326.8486,"ARG_OF_PERICENTER":104.6659,"MEAN_ANOMALY":255.4797,"EPHEMERIS_TYPE":0,"CLASSIFICATION_TYPE":"U","NORAD_CAT_ID":54148,"ELEMENT_SET_NO":999,"REV_AT_EPOCH":14463,"BSTAR":0.00011001095,"MEAN_MOTION_DOT":5.8e-7,"MEAN_MOTION_DDOT":0},{"OBJECT_NAME":"ONEWEB-0527","OBJECT_ID":"2022-166A","EPOCH":"2025-09-27T12:07:01.064352","MEAN_MOTION":13.21823866,"ECCENTRICITY":0.00018481,"INCLINATION":87.9183,"RA_OF_ASC_NODE":296.4209,"ARG_OF_PERICENTER":95.4338,"MEAN_ANOMALY":264.7007,"EPHEMERIS_TYPE":0,"CLASSIFICATION_TYPE":"U","NORAD_CAT_ID":54642,"ELEMENT_SET_NO":999,"REV_AT_EPOCH":13683,"BSTAR":0.00010583783,"MEAN_MOTION_DOT":5.7e-7,"MEAN_MOTION_DDOT":0}]
