ONEWEB-0516             
1 54134U 22138X   25270.21458655  .00000113  00000+0  25054-3 0  9998
2 54134  87.9273 357.2900 0001687 104.4141 255.7179 13.19724955142142
ONEWEB-0517             
1 54135U 22138Y   25270.26986905  .00000166  00000+0  38237-3 0  9993
2 54135  87.9291 357.2458 0001801  90.4408 269.6931 13.19726376142159
ONEWEB-0518             
1 54136U 22138Z   25270.21299547  .00000104  00000+0  22640-3 0  9991
2 54136  87.9282 357.2912 0001622 101.2477 258.8838 13.19725613142141
ONEWEB-0519             
1 54137U 22138AA  25270.31409547  .00000059  00000+0  11612-3 0  9992
2 54137  87.9290 357.2287 0001743  91.4621 268.6712 13.19727312142161
ONEWEB-0520             
1 54138U 22138AB  25270.27301649  .00000144  00000+0  32717-3 0  9996
2 54138  87.9290 357.2405 0001478 105.4702 254.6594 13.19726501142145
ONEWEB-0521             
1 54139U 22138AC  25270.23038255 -.00001005  00000+0 -25433-2 0  9998
2 54139  87.9290 357.2346 0001857  93.4334 266.7011 13.19717438142088
ONEWEB-0522             
1 54140U 22138AD  25270.28565293  .00000034  00000+0  53243-4 0  9993
2 54140  87.9290 357.2248 0001727 101.9063 258.2263 13.19726830142138
ONEWEB-0523             
1 54141U 22138AE  25270.53321157  .00000110  00000+0  23807-3 0  9998
2 54141  87.9246 326.8173 0002718  94.0371 266.1073 13.20773601144638
ONEWEB-0524             
1 54142U 22138AF  25270.59791273  .00000006  00000+0 -18074-4 0  9991
2 54142  87.9250 326.8051 0002535 113.6991 246.4408 13.20770537144641
ONEWEB-0525             
1 54143U 22138AG  25270.30461032 -.00000034  00000+0 -11651-3 0  9993
2 54143  87.9293 357.2430 0001491 104.9661 255.1637 13.19724424142152
ONEWEB-0526             
1 54144U 22138AH  25270.26196130  .00000149  00000+0  33976-3 0  9992
2 54144  87.9285 357.2379 0001736 102.9926 257.1401 13.19725960142124
ONEWEB-0529             
1 54145U 22138AJ  25270.26512976  .00000162  00000+0  37338-3 0  9994
2 54145  87.9276 357.2756 0001583 105.1196 255.0112 13.19725751142144
ONEWEB-0531             
1 54146U 22138AK  25270.58369560 -.00000715  00000+0 -17915-2 0  9993
2 54146  87.9249 326.7991 0002688 100.4574 259.6862 13.20775935144642
ONEWEB-0535             
1 54147U 22138AL  25270.22246990  .00000060  00000+0  11684-3 0  9995
2 54147  87.9290 357.2414 0002160  95.8341 264.3038 13.19726298142150
ONEWEB-0536             
1 54148U 22138AM  25270.57108174  .00000058  00000+0  11001-3 0  9995
2 54148  87.9247 326.8486 0002908 104.6659 255.4797 13.20772033144633
ONEWEB-0527             
1 54642U 22166A   25270.50487343  .00000057  00000+0  10584-3 0  9990
2 54642  87.9183 296.4209 0001848  95.4338 264.7007 13.21823866136831
